NORAD_CAT_ID,OBJECT_NAME,OBJECT_TYPE,EPOCH,MEAN_MOTION,ECCENTRICITY,INCLINATION,RA_OF_ASC_NODE,ARG_OF_PERICENTER,MEAN_ANOMALY,BSTAR,MEAN_MOTION_DOT,MEAN_MOTION_DDOT,TLE_LINE0,TLE_LINE1,TLE_LINE2,SEMIMAJOR_AXIS,PERIOD,APOGEE,PERIGEE,DECAYED
49419.0,STARLINK-3120,PAYLOAD,2024-07-03 12:22:26,15.08848392,9.09e-05,53.216,106.2541,93.1342,266.9754,2.0997e-05,4.7e-07,0.0,0 STARLINK-3120,1 49419U 21104M   24185.51558634  .00000047  00000-0  20997-4 0  9994,2 49419  53.2160 106.2541 0000909  93.1342 266.9754 15.08848392146991,6917.855,95.437,540.349,539.091,0.0
49419.0,STARLINK-3120,PAYLOAD,2024-07-03 21:54:45,15.08849738,0.000114,53.2142,104.4709,89.8133,270.299,-1.8844e-05,-5.88e-06,0.0,0 STARLINK-3120,1 49419U 21104M   24185.91302477 -.00000588  00000-0 -18844-4 0  9990,2 49419  53.2142 104.4709 0001140  89.8133 270.2990 15.08849738145966,6917.851,95.437,540.504,538.927,0.0
49419.0,STARLINK-3120,PAYLOAD,2024-07-04 04:16:17,15.08860093,0.0001192,53.2171,103.2801,97.6388,262.474,-3.6401e-05,-8.67e-06,0.0,0 STARLINK-3120,1 49419U 21104M   24186.17797627 -.00000867  00000-0 -36401-4 0  9993,2 49419  53.2171 103.2801 0001192  97.6388 262.4740 15.08860093147093,6917.819,95.436,540.509,538.859,0.0
49419.0,STARLINK-3120,PAYLOAD,2024-07-04 18:34:46,15.08835133,0.0001126,53.2172,100.6073,76.0819,284.0298,7.5318e-05,9.11e-06,0.0,0 STARLINK-3120,1 49419U 21104M   24186.77415000  .00000911  00000-0  75318-4 0  9999,2 49419  53.2172 100.6073 0001126  76.0819 284.0298 15.08835133147188,6917.895,95.438,540.539,538.981,0.0
49419.0,STARLINK-3120,PAYLOAD,2024-07-04 21:45:32,15.08838815,0.000122,53.216,100.0137,86.457,273.6562,0.00010703,1.416e-05,0.0,0 STARLINK-3120,1 49419U 21104M   24186.90662637  .00001416  00000-0  10703-3 0  9991,2 49419  53.2160 100.0137 0001220  86.4570 273.6562 15.08838815146114,6917.884,95.438,540.593,538.905,0.0
49419.0,STARLINK-3120,PAYLOAD,2024-07-05 04:07:04,15.0884922,0.0001199,53.2165,98.8206,97.2936,262.8193,0.00013681,1.891e-05,0.0,0 STARLINK-3120,1 49419U 21104M   24187.17157968  .00001891  00000-0  13681-3 0  9992,2 49419  53.2165  98.8206 0001199  97.2936 262.8193 15.08849220147248,6917.852,95.437,540.547,538.888,0.0
49419.0,STARLINK-3120,PAYLOAD,2024-07-05 21:36:19,15.08833692,0.0001291,53.2165,95.5491,100.6163,259.4975,-5.2662e-05,-1.126e-05,0.0,0 STARLINK-3120,1 49419U 21104M   24187.90022834 -.00001126  00000-0 -52662-4 0  9992,2 49419  53.2165  95.5491 0001291 100.6163 259.4975 15.08833692146269,6917.9,95.438,540.658,538.872,0.0
49419.0,STARLINK-3120,PAYLOAD,2024-07-06 03:57:51,15.08841363,0.0001141,53.2162,94.3607,79.0457,281.0663,-1.2077e-05,-4.8e-06,0.0,0 STARLINK-3120,1 49419U 21104M   24188.16518481 -.00000480  00000-0 -12077-4 0  9997,2 49419  53.2162  94.3607 0001141  79.0457 281.0663 15.08841363147395,6917.876,95.437,540.531,538.952,0.0
49419.0,STARLINK-3120,PAYLOAD,2024-07-06 10:19:24,15.08841562,0.0001182,53.2166,93.1716,80.2974,279.8151,-8.2861e-07,-3.01e-06,0.0,0 STARLINK-3120,1 49419U 21104M   24188.43014468 -.00000301  00000-0 -82861-6 0  9995,2 49419  53.2166  93.1716 0001182  80.2974 279.8151 15.08841562146342,6917.876,95.437,540.558,538.923,0.0
49419.0,STARLINK-3120,PAYLOAD,2024-07-06 21:27:07,15.08832966,0.0001449,53.2178,91.092,97.9401,262.1756,3.3894e-06,-2.34e-06,0.0,0 STARLINK-3120,1 49419U 21104M   24188.89383460 -.00000234  00000-0  33894-5 0  9991,2 49419  53.2178  91.0920 0001449  97.9401 262.1756 15.08832966147508,6917.902,95.438,540.769,538.764,0.0
49419.0,STARLINK-3120,PAYLOAD,2024-07-07 03:48:39,15.08841223,0.0001415,53.2185,89.9034,98.2615,261.8537,6.8335e-05,8e-06,0.0,0 STARLINK-3120,1 49419U 21104M   24189.15878918  .00000800  00000-0  68335-4 0  9993,2 49419  53.2185  89.9034 0001415  98.2615 261.8537 15.08841223147545,6917.877,95.437,540.721,538.763,0.0
49419.0,STARLINK-3120,PAYLOAD,2024-07-07 18:07:07,15.08837557,0.0001167,53.216,87.224,72.262,287.85,5.7016e-05,6.2e-06,0.0,0 STARLINK-3120,1 49419U 21104M   24189.75495249  .00000620  00000-0  57016-4 0  9995,2 49419  53.2160  87.2240 0001167  72.2620 287.8500 15.08837557147633,6917.888,95.438,540.56,538.946,0.0
49419.0,STARLINK-3120,PAYLOAD,2024-07-08 10:00:59,15.0884144,0.00015,53.218,84.249,83.715,276.4013,2.3149e-05,8e-07,0.0,0 STARLINK-3120,1 49419U 21104M   24190.41735021  .00000080  00000-0  23149-4 0  9995,2 49419  53.2180  84.2490 0001500  83.7150 276.4013 15.08841440146644,6917.876,95.437,540.779,538.703,0.0
49419.0,STARLINK-3120,PAYLOAD,2024-07-08 21:08:41,15.08841006,0.0001533,53.218,82.1668,80.9112,279.2054,0.00015178,2.128e-05,0.0,0 STARLINK-3120,1 49419U 21104M   24190.88103040  .00002128  00000-0  15178-3 0  9993,2 49419  53.2180  82.1668 0001533  80.9112 279.2054 15.08841006147804,6917.877,95.437,540.803,538.682,0.0
49419.0,STARLINK-3120,PAYLOAD,2024-07-08 22:44:04,15.0884345,0.0001577,53.217,81.87,92.6296,267.4876,0.00011375,1.523e-05,0.0,0 STARLINK-3120,1 49419U 21104M   24190.94726950  .00001523  00000-0  11375-3 0  9994,2 49419  53.2170  81.8700 0001577  92.6296 267.4876 15.08843450146723,6917.87,95.437,540.826,538.644,0.0
49419.0,STARLINK-3120,PAYLOAD,2024-07-09 09:51:46,15.08841773,0.0001426,53.217,79.7916,81.3797,278.7357,2.0532e-05,3.9e-07,0.0,0 STARLINK-3120,1 49419U 21104M   24191.41094940  .00000039  00000-0  20532-4 0  9991,2 49419  53.2170  79.7916 0001426  81.3797 278.7357 15.08841773146794,6917.875,95.437,540.726,538.753,0.0
49419.0,STARLINK-3120,PAYLOAD,2024-07-09 20:59:28,15.08837036,0.0001678,53.2183,77.7058,85.5901,274.5283,-4.9456e-05,-1.075e-05,0.0,0 STARLINK-3120,1 49419U 21104M   24191.87463344 -.00001075  00000-0 -49456-4 0  9998,2 49419  53.2183  77.7058 0001678  85.5901 274.5283 15.08837036147953,6917.889,95.438,540.915,538.594,0.0
49419.0,STARLINK-3120,PAYLOAD,2024-07-09 22:34:51,15.08838939,0.0001529,53.2194,77.4106,84.4429,275.6738,-1.7802e-05,-5.71e-06,0.0,0 STARLINK-3120,1 49419U 21104M   24191.94087706 -.00000571  00000-0 -17802-4 0  9990,2 49419  53.2194  77.4106 0001529  84.4429 275.6738 15.08838939146874,6917.884,95.438,540.806,538.691,0.0
49419.0,STARLINK-3120,PAYLOAD,2024-07-10 09:42:33,15.08840933,0.0001686,53.2182,75.3293,85.8709,274.2476,-3.8287e-05,-8.97e-06,0.0,0 STARLINK-3120,1 49419U 21104M   24192.40455623 -.00000897  00000-0 -38287-4 0  9990,2 49419  53.2182  75.3293 0001686  85.8709 274.2476 15.08840933146944,6917.878,95.437,540.909,538.576,0.0
49419.0,STARLINK-3120,PAYLOAD,2024-07-10 22:25:38,15.0884798,0.0001344,53.2174,72.9487,98.3574,261.757,1.2129e-05,-9.5e-07,0.0,0 STARLINK-3120,1 49419U 21104M   24192.93446963 -.00000095  00000-0  12129-4 0  9991,2 49419  53.2174  72.9487 0001344  98.3574 261.7570 15.08847980147028,6917.856,95.437,540.651,538.791,0.0
49419.0,STARLINK-3120,PAYLOAD,2024-07-12 01:27:11,15.08845847,0.0001435,53.2169,67.8942,87.314,272.8016,0.00011965,1.617e-05,0.0,0 STARLINK-3120,1 49419U 21104M   24194.06054916  .00001617  00000-0  11965-3 0  9996,2 49419  53.2169  67.8942 0001435  87.3140 272.8016 15.08845847148286,6917.863,95.437,540.72,538.735,0.0
49419.0,STARLINK-3120,PAYLOAD,2024-07-12 20:31:49,15.0884276,0.0001579,53.2181,64.324,98.6611,261.4561,5.0751e-05,5.2e-06,0.0,0 STARLINK-3120,1 49419U 21104M   24194.85543228  .00000520  00000-0  50751-4 0  9991,2 49419  53.2181  64.3240 0001579  98.6611 261.4561 15.08842760148404,6917.872,95.437,540.829,538.645,0.0
49419.0,STARLINK-3120,PAYLOAD,2024-07-12 22:07:11,15.08858986,0.0001514,53.2174,64.0249,90.5214,269.5951,-0.00013583,-2.45e-05,0.0,0 STARLINK-3120,1 49419U 21104M   24194.92166390 -.00002450  00000-0 -13583-3 0  9997,2 49419  53.2174  64.0249 0001514  90.5214 269.5951 15.08858986147320,6917.822,95.436,540.735,538.64,0.0
49419.0,STARLINK-3120,PAYLOAD,2024-07-13 21:58:00,15.088266,0.0001545,53.2173,59.5661,108.2918,251.8242,-3.9453e-05,-9.16e-06,0.0,0 STARLINK-3120,1 49419U 21104M   24195.91528561 -.00000916  00000-0 -39453-4 0  9999,2 49419  53.2173  59.5661 0001545 108.2918 251.8242 15.08826600148560,6917.921,95.438,540.855,538.718,0.0
49419.0,STARLINK-3120,PAYLOAD,2024-07-14 07:30:20,15.08822255,0.00014,53.2178,57.7884,106.1319,253.9827,-8.4666e-06,-4.23e-06,0.0,0 STARLINK-3120,1 49419U 21104M   24196.31273214 -.00000423  00000-0 -84666-5 0  9996,2 49419  53.2178  57.7884 0001400 106.1319 253.9827 15.08822255147534,6917.935,95.439,540.768,538.831,0.0
49419.0,STARLINK-3120,PAYLOAD,2024-07-14 21:48:46,15.08847137,0.0001201,53.216,55.1107,105.9372,254.1752,0.0001918,2.767e-05,0.0,0 STARLINK-3120,1 49419U 21104M   24196.90887681  .00002767  00000-0  19180-3 0  9998,2 49419  53.2160  55.1107 0001201 105.9372 254.1752 15.08847137148717,6917.859,95.437,540.554,538.893,0.0
49419.0,STARLINK-3120,PAYLOAD,2024-07-15 13:42:38,15.08848319,0.0001572,53.2185,52.1409,117.9176,242.1975,0.00030686,4.6e-05,0.0,0 STARLINK-3120,1 49419U 21104M   24197.57127881  .00004600  00000-0  30686-3 0  9993,2 49419  53.2185  52.1409 0001572 117.9176 242.1975 15.08848319147729,6917.855,95.437,540.807,538.632,0.0
49419.0,STARLINK-3120,PAYLOAD,2024-07-15 20:04:11,15.08842195,0.000149,53.2182,50.9496,111.4698,248.6453,0.00015471,2.175e-05,0.0,0 STARLINK-3120,1 49419U 21104M   24197.83624083  .00002175  00000-0  15471-3 0  9998,2 49419  53.2182  50.9496 0001490 111.4698 248.6453 15.08842195148858,6917.874,95.437,540.769,538.708,0.0
49419.0,STARLINK-3120,PAYLOAD,2024-07-15 21:39:34,15.08845787,0.000147,53.2186,50.651,98.6494,261.4665,0.00017938,2.568e-05,0.0,0 STARLINK-3120,1 49419U 21104M   24197.90247890  .00002568  00000-0  17938-3 0  9999,2 49419  53.2186  50.6510 0001470  98.6494 261.4665 15.08845787147772,6917.863,95.437,540.745,538.711,0.0
49419.0,STARLINK-3120,PAYLOAD,2024-07-16 07:11:53,15.08843675,0.0001435,53.2188,48.864,88.2339,271.8817,0.0002583,3.826e-05,0.0,0 STARLINK-3120,1 49419U 21104M   24198.29991997  .00003826  00000-0  25830-3 0  9994,2 49419  53.2188  48.8640 0001435  88.2339 271.8817 15.08843675147836,6917.869,95.437,540.727,538.741,0.0
